STARLINK-5664           
1 55360U 23013AF  26068.40868033 -.00001148  00000+0 -69927-4 0  9994
2 55360  43.0035 314.2916 0001163 296.1617  63.9106 15.02540615171525
QPS-SAR-12 (KUSHINADA-I)
1 65116U 25169A   26068.45165888  .00007038  00000+0  57220-3 0  9995
2 65116  42.0102 204.8332 0007793 277.3009  82.6931 14.99881586 32436
