[{"OBJECT_NAME":"STARLINK-5664","OBJECT_ID":"2023-013AF","EPOCH":"2026-03-09T09:48:29.980512","MEAN_MOTION":15.02540615,"ECCENTRICITY":0.00011636,"INCLINATION":43.0035,"RA_OF_ASC_NODE":314.2916,"ARG_OF_PERICENTER":296.1617,"MEAN_ANOMALY":63.9106,"EPHEMERIS_TYPE":0,"CLASSIFICATION_TYPE":"U","NORAD_CAT_ID":55360,"ELEMENT_SET_NO":999,"REV_AT_EPOCH":17152,"BSTAR":-6.9926632e-5,"MEAN_MOTION_DOT":-1.148e-5,"MEAN_MOTION_DDOT":0},{"OBJECT_NAME":"QPS-SAR-12 (KUSHINADA-I)","OBJECT_ID":"2025-169A","EPOCH":"2026-03-09T10:50:23.327232","MEAN_MOTION":14.99881586,"ECCENTRICITY":0.00077939,"INCLINATION":42.0102,"RA_OF_ASC_NODE":204.8332,"ARG_OF_PERICENTER":277.3009,"MEAN_ANOMALY":82.6931,"EPHEMERIS_TYPE":0,"CLASSIFICATION_TYPE":"U","NORAD_CAT_ID":65116,"ELEMENT_SET_NO":999,"REV_AT_EPOCH":3243,"BSTAR":0.00057220088,"MEAN_MOTION_DOT":7.038e-5,"MEAN_MOTION_DDOT":0}]
